NORAD_CAT_ID,OBJECT_NAME,OBJECT_TYPE,EPOCH,MEAN_MOTION,ECCENTRICITY,INCLINATION,RA_OF_ASC_NODE,ARG_OF_PERICENTER,MEAN_ANOMALY,BSTAR,MEAN_MOTION_DOT,MEAN_MOTION_DDOT,TLE_LINE0,TLE_LINE1,TLE_LINE2,SEMIMAJOR_AXIS,PERIOD,APOGEE,PERIGEE,DECAYED
52619.0,STARLINK-3741,PAYLOAD,2022-12-14 13:11:05,15.08843756,0.0002975,53.219,171.4816,45.7159,314.4077,3.618e-09,-2.89e-06,0.0,0 STARLINK-3741,1 52619U 22052X   22348.54936996 -.00000289  00000-0  36180-8 0  9990,2 52619  53.2190 171.4816 0002975  45.7159 314.4077 15.08843756 32678,6917.869000000002,95.437,541.7919999999998,537.6759999999998,0.0
52619.0,STARLINK-3741,PAYLOAD,2022-12-14 19:32:37,15.08844745,0.0002984,53.2163,170.2906,44.3132,315.8099,2.5761e-06,-2.48e-06,0.0,0 STARLINK-3741,1 52619U 22052X   22348.81432788 -.00000248  00000-0  25761-5 0  9995,2 52619  53.2163 170.2906 0002984  44.3132 315.8099 15.08844745 32714,6917.866,95.437,541.795,537.6669999999998,0.0
52619.0,STARLINK-3741,PAYLOAD,2022-12-15 13:01:53,15.08831459,0.0002906,53.2161,167.0197,44.8688,315.2539,-0.0001386999999999,-2.495e-05,0.0,0 STARLINK-3741,1 52619U 22052X   22349.54297921 -.00002495  00000-0 -13870-3 0  9997,2 52619  53.2161 167.0197 0002906  44.8688 315.2539 15.08831459 32826,6917.906,95.438,541.7819999999998,537.761,0.0
52619.0,STARLINK-3741,PAYLOAD,2022-12-15 19:23:25,15.0883422,0.0002933,53.2174,165.8308,46.6567,313.4669,-0.00011633,-2.139e-05,0.0,0 STARLINK-3741,1 52619U 22052X   22349.80793777 -.00002139  00000-0 -11633-3 0  9996,2 52619  53.2174 165.8308 0002933  46.6567 313.4669 15.08834220 33246,6917.898,95.438,541.7919999999998,537.734,0.0
52619.0,STARLINK-3741,PAYLOAD,2022-12-16 11:17:17,15.08831122,0.0002951,53.217,162.8565,46.2221,313.9015,3.6657e-06,-2.3e-06,0.0,0 STARLINK-3741,1 52619U 22052X   22350.47033866 -.00000230  00000-0  36657-5 0  9991,2 52619  53.2170 162.8565 0002951  46.2221 313.9015 15.08831122 32963,6917.908,95.438,541.814,537.731,0.0
52619.0,STARLINK-3741,PAYLOAD,2022-12-16 20:49:36,15.08835047,0.0003006,53.2172,161.0722,46.3541,313.77,1.5980999999999998e-05,-3.4e-07,0.0,0 STARLINK-3741,1 52619U 22052X   22350.86777817 -.00000034  00000-0  15981-4 0  9993,2 52619  53.2172 161.0722 0003006  46.3541 313.7700 15.08835047 33026,6917.896,95.438,541.84,537.681,0.0
52619.0,STARLINK-3741,PAYLOAD,2022-12-17 04:46:31,15.08840244,0.0003011,53.2175,159.5855,45.8755,314.2484,2.5059e-05,1.1e-06,0.0,0 STARLINK-3741,1 52619U 22052X   22351.19897577  .00000110  00000-0  25059-4 0  9997,2 52619  53.2175 159.5855 0003011  45.8755 314.2484 15.08840244 33070,6917.88,95.438,541.828,537.6619999999998,0.0
52619.0,STARLINK-3741,PAYLOAD,2022-12-17 20:40:22,15.08838981,0.0003021,53.2177,156.6119,47.633,312.4918,0.00018045,2.584e-05,0.0,0 STARLINK-3741,1 52619U 22052X   22351.86137589  .00002584  00000-0  18045-3 0  9994,2 52619  53.2177 156.6119 0003021  47.6330 312.4918 15.08838981 33171,6917.884,95.438,541.8380000000002,537.659,0.0
52619.0,STARLINK-3741,PAYLOAD,2022-12-17 23:51:09,15.08840608,0.0003027,53.2177,156.0172,47.86,312.2649,0.00019626,2.836e-05,0.0,0 STARLINK-3741,1 52619U 22052X   22351.99385567  .00002836  00000-0  19626-3 0  9995,2 52619  53.2177 156.0172 0003027  47.8600 312.2649 15.08840608 33574,6917.879,95.438,541.8380000000002,537.649,0.0
52619.0,STARLINK-3741,PAYLOAD,2022-12-18 10:58:50,15.08847124,0.000304,53.2178,153.9356,48.81399999999999,311.3114,0.00020673,3.004e-05,0.0,0 STARLINK-3741,1 52619U 22052X   22352.45753195  .00003004  00000-0  20673-3 0  9995,2 52619  53.2178 153.9356 0003040  48.8140 311.3114 15.08847124 33263,6917.859,95.437,541.827,537.621,0.0
52619.0,STARLINK-3741,PAYLOAD,2022-12-18 20:31:09,15.08856339,0.0003103,53.2168,152.1515,49.2137,310.9124,0.00031792,4.777e-05,0.0,0 STARLINK-3741,1 52619U 22052X   22352.85496937  .00004777  00000-0  31792-3 0  9999,2 52619  53.2168 152.1515 0003103  49.2137 310.9124 15.08856339 33322,6917.83,95.437,541.842,537.549,0.0
52619.0,STARLINK-3741,PAYLOAD,2022-12-19 15:35:46,15.08855648,0.0003173,53.2167,148.5834,50.9491,309.1783,0.00017852,2.555e-05,0.0,0 STARLINK-3741,1 52619U 22052X   22353.64984377  .00002555  00000-0  17852-3 0  9990,2 52619  53.2167 148.5834 0003173  50.9491 309.1783 15.08855648 33821,6917.833000000001,95.437,541.893,537.503,0.0
52619.0,STARLINK-3741,PAYLOAD,2022-12-19 20:21:55,15.08857391,0.0003188,53.2167,147.6913,51.0614,309.0662,0.00016002,2.26e-05,0.0,0 STARLINK-3741,1 52619U 22052X   22353.84856060  .00002260  00000-0  16002-3 0  9998,2 52619  53.2167 147.6913 0003188  51.0614 309.0662 15.08857391 33477,6917.8269999999975,95.436,541.898,537.487,0.0
52619.0,STARLINK-3741,PAYLOAD,2022-12-20 12:15:46,15.08856727,0.0003243,53.2166,144.7178,52.7783,307.3505,4.7911e-05,4.74e-06,0.0,0 STARLINK-3741,1 52619U 22052X   22354.51095388  .00000474  00000-0  47911-4 0  9990,2 52619  53.2166 144.7178 0003243  52.7783 307.3505 15.08856727 33574,6917.829000000002,95.436,541.938,537.451,0.0
52619.0,STARLINK-3741,PAYLOAD,2022-12-20 17:01:55,15.08857124,0.0003056,53.2178,143.8256,52.5216,307.6053,4.7927e-05,4.75e-06,0.0,0 STARLINK-3741,1 52619U 22052X   22354.70967190  .00000475  00000-0  47927-4 0  9998,2 52619  53.2178 143.8256 0003056  52.5216 307.6053 15.08857124 33983,6917.828,95.436,541.807,537.5790000000002,0.0
52619.0,STARLINK-3741,PAYLOAD,2022-12-20 21:48:05,15.08844527,0.0003055,53.2179,142.9339,50.1223,310.0038,-6.672e-05,-1.351e-05,0.0,0 STARLINK-3741,1 52619U 22052X   22354.90840036 -.00001351  00000-0 -66720-4 0  9997,2 52619  53.2179 142.9339 0003055  50.1223 310.0038 15.08844527 34016,6917.8669999999975,95.437,541.845,537.618,0.0
52619.0,STARLINK-3741,PAYLOAD,2022-12-21 08:55:48,15.08836396,0.0002969,53.218,140.8525,50.9881,309.1375,-8.3367e-05,-1.615e-05,0.0,0 STARLINK-3741,1 52619U 22052X   22355.37208553 -.00001615  00000-0 -83367-4 0  9990,2 52619  53.2180 140.8525 0002969  50.9881 309.1375 15.08836396 34088,6917.891,95.438,541.81,537.702,0.0
52619.0,STARLINK-3741,PAYLOAD,2022-12-21 12:06:34,15.08834056,0.0002962,53.218,140.2576,50.7423,309.3831,-9.8782e-05,-1.86e-05,0.0,0 STARLINK-3741,1 52619U 22052X   22355.50456724 -.00001860  00000-0 -98782-4 0  9999,2 52619  53.2180 140.2576 0002962  50.7423 309.3831 15.08834056 33721,6917.899,95.438,541.813,537.714,0.0
52619.0,STARLINK-3741,PAYLOAD,2022-12-22 02:25:02,15.0884236,0.0002956,53.2181,137.5818,49.1805,310.9443,-5.9714e-05,-1.239e-05,0.0,0 STARLINK-3741,1 52619U 22052X   22356.10072086 -.00001239  00000-0 -59714-4 0  9993,2 52619  53.2181 137.5818 0002956  49.1805 310.9443 15.08842360 34195,6917.873000000001,95.437,541.783,537.693,0.0
52619.0,STARLINK-3741,PAYLOAD,2022-12-22 10:21:57,15.08842438,0.0002986,53.2182,136.0948,49.0992,311.0258,2.8852e-05,1.71e-06,0.0,0 STARLINK-3741,1 52619U 22052X   22356.43191849  .00000171  00000-0  28852-4 0  9999,2 52619  53.2182 136.0948 0002986  49.0992 311.0258 15.08842438 33868,6917.873000000001,95.437,541.804,537.672,0.0
52619.0,STARLINK-3741,PAYLOAD,2022-12-22 19:54:17,15.08836007,0.0002897,53.2182,134.311,48.0186,312.1053,-4.4679e-05,-1e-05,0.0,0 STARLINK-3741,1 52619U 22052X   22356.82936439 -.00001000  00000-0 -44679-4 0  9993,2 52619  53.2182 134.3110 0002897  48.0186 312.1053 15.08836007 33922,6917.893,95.438,541.762,537.753,0.0
52619.0,STARLINK-3741,PAYLOAD,2022-12-23 02:15:49,15.08833784,0.0002874,53.2181,133.1217,47.6313,312.4922,2.9276e-05,1.77e-06,0.0,0 STARLINK-3741,1 52619U 22052X   22357.09432453  .00000177  00000-0  29276-4 0  9998,2 52619  53.2181 133.1217 0002874  47.6313 312.4922 15.08833784 34342,6917.899,95.438,541.753,537.776,0.0
52619.0,STARLINK-3741,PAYLOAD,2022-12-23 11:48:08,15.08834935,0.0002851,53.2181,131.33700000000002,47.1574,312.9657,0.00012049,1.629e-05,0.0,0 STARLINK-3741,1 52619U 22052X   22357.49176266  .00001629  00000-0  12049-3 0  9991,2 52619  53.2181 131.3370 0002851  47.1574 312.9657 15.08834935 34025,6917.896,95.438,541.7330000000002,537.789,0.0
52619.0,STARLINK-3741,PAYLOAD,2022-12-23 18:09:40,15.08834432,0.0002862,53.2182,130.1476,47.4976,312.6258,0.00010634,1.404e-05,0.0,0 STARLINK-3741,1 52619U 22052X   22357.75672449  .00001404  00000-0  10634-3 0  9993,2 52619  53.2182 130.1476 0002862  47.4976 312.6258 15.08834432 34061,6917.897,95.438,541.742,537.783,0.0
52619.0,STARLINK-3741,PAYLOAD,2022-12-24 08:28:09,15.08838547,0.0002785,53.2181,127.4717,46.6697,313.4527,5.8038e-05,6.35e-06,0.0,0 STARLINK-3741,1 52619U 22052X   22358.35288505  .00000635  00000-0  58038-4 0  9992,2 52619  53.2181 127.4717 0002785  46.6697 313.4527 15.08838547 34533,6917.885,95.438,541.6759999999998,537.823,0.0
52619.0,STARLINK-3741,PAYLOAD,2022-12-24 14:49:41,15.08845631,0.000283,53.2183,126.283,48.1935,311.9298,7.4948e-05,9.05e-06,0.0,0 STARLINK-3741,1 52619U 22052X   22358.61783960  .00000905  00000-0  74948-4 0  9994,2 52619  53.2183 126.2830 0002830  48.1935 311.9298 15.08845631 34575,6917.863,95.437,541.686,537.77,0.0
52619.0,STARLINK-3741,PAYLOAD,2022-12-25 08:18:56,15.08837627,0.0002704,53.2181,123.0117,46.3897,313.7319,6.6692e-05,7.73e-06,0.0,0 STARLINK-3741,1 52619U 22052X   22359.34648472  .00000773  00000-0  66692-4 0  9993,2 52619  53.2181 123.0117 0002704  46.3897 313.7319 15.08837627 34685,6917.888000000001,95.438,541.623,537.882,0.0
52619.0,STARLINK-3741,PAYLOAD,2022-12-25 14:40:29,15.08837129,0.0002878,53.219,121.821,48.6636,311.4603,1.5682e-05,-3.9e-07,0.0,0 STARLINK-3741,1 52619U 22052X   22359.61144713 -.00000039  00000-0  15682-4 0  9991,2 52619  53.2190 121.8210 0002878  48.6636 311.4603 15.08837129 34344,6917.889,95.438,541.745,537.763,0.0
52619.0,STARLINK-3741,PAYLOAD,2022-12-26 08:09:43,15.08833237,0.0002589,53.2198,118.55,47.2413,312.8797,8.2709e-05,1.028e-05,0.0,0 STARLINK-3741,1 52619U 22052X   22360.34008872  .00001028  00000-0  82709-4 0  9990,2 52619  53.2198 118.5500 0002589  47.2413 312.8797 15.08833237 34451,6917.901,95.438,541.557,537.975,0.0
